cityCode,cityName,wellnessCentreCode,wellnessCentreName,wellnessCentreAddress,doctorCount,category,wellnessCentreContactNo,longitude,latitude
11,DELHI/NCR,AY19,Dev Nagar (Ayurvedic),"Double Storey Qtrs.No.141 Block No.12, (Opposite Mother Dairy) Dev Nagar, New Delhi-5.",3,ayurvedic,25860275,77.18402863,28.654448
11,DELHI/NCR,AY3,Delhi Cantt (Ayurvedic),"Sadar Bazar, Delhi Cantt,Near Geeta Asharam,New Delhi-10",2,ayurvedic,25692914,77.12076569,28.589346
11,DELHI/NCR,AY31,North Avenue (Ayur),"4-MP Flats, North Avenue, New Delhi",3,ayurvedic,23092794,77.19916534,28.618547
11,DELHI/NCR,AY40,AYURVEDIC WC JUNG PURA,"Q.No.46, 48, 50, 52, 56, Block No. 8, Jangpura, New Delhi",1,ayurvedic,011-24312213,77.24526215,28.582367
11,DELHI/NCR,AY57,"R.K.Puram-V,(Sec-12)","Qr. 810, 818 825, Sector XII, R.K. Puram, New Delhi",4,ayurvedic,011-26175146,77.17580414,28.573278
11,DELHI/NCR,AY60,Kingsway Camp Ayurvedic,"CGHS Wellness Centre KWC, New Police Line, Kingsway Camp, Delhi",2,ayurvedic,011-27459411,77.20196533,28.698978
11,DELHI/NCR,AY61,Janak Puri-I (Ayurvedic),"C-4A, Janak Puri ,Besides Janakpuri Superspeciality Hospital, New Delhi-58",7,ayurvedic,25534868,77.08933258,28.621658
11,DELHI/NCR,AY63,Sadiq Nagar,"CGHS Wellness Centre, Sadiq Nagar Sector-3 (Near G.K. I), N Delhi",2,ayurvedic,011-24623767,77.22678375,28.554974
11,DELHI/NCR,AY65,AYURVEDIC WC MEHRAULI BADARPUR,"CGHS Wellness Centre Building, Sector 1, M.B. Road, N. Delhi",3,ayurvedic,011-29564988,77.22093201,28.52314
11,DELHI/NCR,AY67,Laxmi Nagar Ayurvedic,"2nd Floor, CGHS Building Laxmi Nagar, H-Block, Vikas Marg (Near Metro Station),Laxmi Nagar, Delhi-110092",3,ayurvedic,011-22543108/ 22466544,77.27727509,28.630713
11,DELHI/NCR,AY73,AYURVEDIC WC GURGAON SEC-5,"409 / Sector-5, Gurgaon",2,ayurvedic,0124-4064496,77.02024841,28.48208
11,DELHI/NCR,AY76,Kalibari (Ayur),"CGHS Building, Kali bari Marg, New Delhi",6,ayurvedic,23363178,77.20005798,28.629055
11,DELHI/NCR,AY80,Paschim Vihar (Ayurvedic),"Near Tagore Garden Bus Stand, Delhi-27",4,ayurvedic,25171213,77.11227417,28.645285
11,DELHI/NCR,AY9,AYURVEDIC WC LODHI ROAD I(ALI GANJ),,9,ayurvedic,,77.21893311,28.583834
11,DELHI/NCR,AYHO,AYURVEDIC HOSPITAL LODHI ROAD,,3,ayurvedic,,77.2203598,28.582735
11,DELHI/NCR,D1,Gole Market,"CGHS Building, DIZ Area-II, Gole Market, New Delhi",8,alopathic,23743810,77.2027359,28.634432
11,DELHI/NCR,D10,Lodhi Road II,"Block 4-1, 3, 5, 7, Lodhi Road, New Delhi",5,alopathic,24611442,77.22511292,28.58217
11,DELHI/NCR,D11,LAJPATNAGAR,"CGHS Disp. Building, Lajpat Nagar Market, New Delhi.",9,alopathic,011-29816439,77.23910522,28.572266
11,DELHI/NCR,D13,Sarojini NagarI,"XY Block, 342-346, Sarojini Nagar, New Delhi",18,alopathic,011-24670555,77.20010376,28.577217
11,DELHI/NCR,D14,Sarojini Nagar-II,"I 165, 67, 69, 171, Sarojini Nagar, New Delhi",4,alopathic,011-24670666,77.19091797,28.576942
11,DELHI/NCR,D15,LAXMIBAI NAGAR,"CGHS Wellness Centre, Near Navyug School, Laxmibai Nagar, Ndelhi",4,alopathic,011-26874643,77.20652008,28.575865
11,DELHI/NCR,D16,Moti Bagh,"CGHS Wellness Centre, Near Begum Zaidi Market, Moti Bagh, N Delhi",5,alopathic,011-24670333,77.17815399,28.584455
11,DELHI/NCR,D17,Vikaspuri,"Block-QM, Vikaspuri Police Line, New Delhi-58",7,alopathic,28533441,77.06486511,28.63233
11,DELHI/NCR,D17A,VIKAS PURI,"Block-QM, Vikaspuri Police Line, New Delhi-58",5,alopathic,28533441,77.0651474,28.63281
11,DELHI/NCR,D18,Pusa Road,"CGHS Lab & Polyclinic No. 1,23-Pusa Road, New Delhi-5",3,alopathic,"28758071, 28754318",77.18953705,28.644466
11,DELHI/NCR,D19,Dev Nagar,"Double Storey Qtrs.No.107,109,111,Block No.12, Opp Mother Dairy, Karol Bagh, Dev Nagar, New Delhi-5",52,alopathic,25860275,77.18402863,28.654448
11,DELHI/NCR,D2,Pandara Road,"D-II/365-367, Pandara Road, New Delhi",8,alopathic,23385040 23073054,77.22740173,28.602995
11,DELHI/NCR,D21,Netaji Nagar,"CGHS Wellness Centre Building, Netaji Nagar, New Delhi",5,alopathic,011-24670222,77.18649292,28.572374
11,DELHI/NCR,D22A,Greater Noida,"P3 Shopping complex, First floor, Greater Noida-201310",4,alopathic,0120-2447126,77.52124023,28.45142
11,DELHI/NCR,D23,Chanakya Puri,"D-II/257, 259, Vinay Marg, New Delhi",6,alopathic,24673777 24122518,77.20863342,28.569805
11,DELHI/NCR,D24,KASTURBA NAGAR-I,"CGHS Polyclinic, Kasturba Nagar, New Delhi",7,alopathic,011-24622867,77.22444916,28.577652
11,DELHI/NCR,D26,Tilak Nagar,"Tilak Nagar Near Subzi Mandi, New Delhi-18",5,alopathic,25998900,77.09846497,28.638773
11,DELHI/NCR,D27,President Estate,"CGHS Wellness Centre Wing, President Estate, New Delhi",3,alopathic,23094777 23092990,77.19902039,28.6243
11,DELHI/NCR,D29,Nanak Pura,"CGHS Wellness Centre Building, Nanakpura, New Delhi",4,alopathic,011-24670444,77.16872406,28.58163
11,DELHI/NCR,D3,Delhi Cantt,"Sadar Bazar, Delhi Cantt,Near Geeta Ashram,New Delhi-10",4,alopathic,25692914,77.11991119,28.590773
11,DELHI/NCR,D31,North Avenue,"31, North Avenue, New Delhi-1",16,alopathic,23094420,77.19965363,28.622715
11,DELHI/NCR,D32,South Avenue,"153, South Avenue , New Delhi-11",9,alopathic,23013490,77.19973755,28.60824
11,DELHI/NCR,D33A,Jharoda Kalan,"Delhi Police Training College, Jharoda Kalan, Najafgarh, Delhi-72",5,alopathic,25315364,76.96034241,28.639637
11,DELHI/NCR,D34,Telegraph Lane,"18-E, Telegraph Lane, New Delhi",18,alopathic,23326601 23318949,77.22183228,28.621157
11,DELHI/NCR,D35,SAROJINI NAGAR MARKET,,3,alopathic,,77.19536591,28.578398
11,DELHI/NCR,D36A,Dwarka,"Palam Dabri Road,Palam New Delhi-45 (Near Dwaraka Fly over)",8,alopathic,25056722,77.08275604,28.59262
11,DELHI/NCR,D37,Sriniwas Puri,"CGHS Wellness Centre Building, Srinivaspuri, New Delhi.",5,alopathic,011-26910251,77.25615692,28.564219
11,DELHI/NCR,D38,West Patel Nagr,"15/23,24 Basement, West Patel Nagar, New Delhi-8",6,alopathic,25882551,77.16700745,28.651194
11,DELHI/NCR,D39,Andrews Ganj,"D-2, 65 & 66, Andrews Ganj. New Delhi",6,alopathic,011-26257628,77.23143005,28.565308
11,DELHI/NCR,D4,Minto Road,"New Minto Road Hostel, Block-I, Minto Road Complex, N.Delhi",4,alopathic,23234625,77.22707367,28.639399
11,DELHI/NCR,D40,Jangpura,"Q.No.46, 48, 50, 52, 56, Block No. 8, Jangpura, New Delhi",2,alopathic,011-24312213,77.24533081,28.582262
11,DELHI/NCR,D41,Malviya Nagar,"Delhi Senior Secondary School, Malviya Nagar, N.Delhi-110017",11,alopathic,011-26671494,77.2117157,28.53425
11,DELHI/NCR,D42,Kalkaji I,"CGHS Maternity Centre Building & Disp., Kalkaji, New Delhi",5,alopathic,011-26430851,77.25829315,28.54032
11,DELHI/NCR,D43,"R.K.Puram I,Sec 4","Q.No.817-818,Sector IV, R.K.Puram, New Delhi",7,alopathic,011-26175132,77.17922974,28.56311
11,DELHI/NCR,D44,Dr. Zakir Hussain Road,"CGHS Building, Dr. Zakir Hussain Road, New Dehli",5,alopathic,23383724,77.23468018,28.605564
11,DELHI/NCR,D45,New Rajinder Ngr,"CGHS Wellness Center, Shankar Rd,New Rajinder Nagar, N Delhi-60",3,alopathic,28742850,77.18449402,28.635836
11,DELHI/NCR,D46,R K PURAM-II,"CGHS Wellness Centre Building, R.K. Puram, Sector II, New Delhi",5,alopathic,011-26175323,77.1727829,28.564442
11,DELHI/NCR,D47,HAUZ KHAS,"CGHS Wellness Centre Building, Safdarjung Dev Area, N. Delhi.",5,alopathic,011-26567844,77.20210266,28.55045
11,DELHI/NCR,D48,Hari Nagar,"CGHS Hari Nagar, Near DTC Depot, Hari Nagar, New Delhi-64",8,alopathic,28125518,77.10442352,28.624546
11,DELHI/NCR,D49,Shahdara,"CGHS Wellness Centre, Mansarovar Park, Shahdara, Delhi-32",10,alopathic,011-22583766,77.2988205,28.681366
11,DELHI/NCR,D5,Paharganj,"3 & 4, Chitra Gupta Road, New Delhi",61,alopathic,23587511 23561574,77.2093811,28.64533
11,DELHI/NCR,D50,R K PURAM-III,,6,alopathic,,77.17342377,28.565052
11,DELHI/NCR,D50A,CBI COLONY,"Flat No. 59 B & 59 C,CBI Colony, Vasant Vihar, New Delhi",3,alopathic,011-26141978,77.16330719,28.557566
11,DELHI/NCR,D51,CHITRA GUPTA ROAD,,12,alopathic,,77.20821381,28.642258
11,DELHI/NCR,D52,"RK Puram IV,Sec8","CGHS Wellness Centre Building, Sector -VIII, R.K. Puram, New Delhi",7,alopathic,011-26173988,77.16693115,28.571602
11,DELHI/NCR,D53,Rajouri Garden,"Near Tagore Garden Bus Stand, Delhi-27",5,alopathic,25171213,77.11227417,28.645285
11,DELHI/NCR,D54,Shakur Basti,"H.N. 2110, Police Chowki Gali, Multhani Mohalla, Rani Bagh, Delhi-56",6,alopathic,27021102,77.11525726,28.689352
11,DELHI/NCR,D55,Inderpuri,"647-648, Krishi Kunj, Inderpuri, New Delhi-12",4,alopathic,25836573,77.14614868,28.635563
11,DELHI/NCR,D56,GKG WC,"F3/23,Krishna Nagar(Near Vijay Chowk),Delhi-51",4,alopathic,011-22512866,77.2840271,28.65882
11,DELHI/NCR,D57,"RK Puram V,Sec12","Qr. 810, 818 825, Sector XII, R.K. Puram, New Delhi",6,alopathic,011-26170472,77.17582703,28.57319
11,DELHI/NCR,D58,Nangal Raya,"D-Block, Janakpuri, Nangal Raya, New Delhi-46",8,alopathic,28521863,77.09876251,28.611599
11,DELHI/NCR,D59,Rajpur Road,"5, Rajpur Road, Old Police Line, Delhi-54",5,alopathic,011-23973646,77.21626282,28.66859
11,DELHI/NCR,D6,Subzi Mandi,"A 517, Shastri Nagar, Delhi110052",3,alopathic,011-23655272,77.1829834,28.67464
11,DELHI/NCR,D60,Kingsway Camp,"CGHS Wellness Centre, New Police Line, Kingsway Camp, Delhi",14,alopathic,011-27459411,77.198349,28.688356
11,DELHI/NCR,D61,Janakpuri-I,"C-4A, Janak Puri, Near Janakpuri Superspeciality Hospital, N. Delhi-58",11,alopathic,25551434,77.08933258,28.621658
11,DELHI/NCR,D62,Ashok Vihar,"D-Block Phase-I, Ashok Vihar, New Delhi-52",8,alopathic,27242028,77.16370392,28.693634
11,DELHI/NCR,D63,Sadiq Nagar,"CGHS Wellness Centre, Sadiq Nagar Sector-3 (Near G.K. I), N Delhi",5,alopathic,011-26255516,77.22678375,28.554974
11,DELHI/NCR,D64,Tri Nagar,"House No. 564, Street No. 37, Onkar Nagar-B Tri Nagar, Delhi-35",5,alopathic,27385025,77.16057587,28.67423
11,DELHI/NCR,D65,M.B. Road,"CGHS Wellness Centre Building, Sector 1, M.B. Road, N. Delhi",6,alopathic,011-29564988,77.22093201,28.523499
11,DELHI/NCR,D66,Palam Colony,"CGHS Wellness Centre Palam Colony, New Delhi-46",9,alopathic,25035839,77.08592987,28.590113
11,DELHI/NCR,D67,Laxminagar,"CGHS Building, H-Block, ,Laxmi Nagar, Vikas Marg (Near Metro Station) Delhi-110092",13,alopathic,011-22543108 011-22466544,77.27727509,28.630802
11,DELHI/NCR,D68,Ghaziabad,"CGHS Building, Kamla Nehru Nagar, Ghaziabad, UP-201002",9,alopathic,0120-2789969,77.46369171,28.68051
11,DELHI/NCR,D69,"RK Puram VI,Sec 3","Qr. No. 833,837,839, Qr. No. 817, Sector 3, R.K. Puram, New Delhi",9,alopathic,011-26173911,77.17902374,28.55421
11,DELHI/NCR,D7,Timarpur,"CGHS Hospital/ Wellness Cenre , Lucknow Road,Timarpur, Delhi-54",7,alopathic,011-23813808,77.22129059,28.706646
11,DELHI/NCR,D70,Faridabad,"CGHS Building, Neighbourhood Township-4, Near Sect 21 B, Faridabad -121001",8,alopathic,0129-2412729,77.29773712,28.405228
11,DELHI/NCR,D71,MUNIRKA,"DDA Flat, JNU Campus, Munirka, New Delhi",18,alopathic,011-26741983,77.17024231,28.55014
11,DELHI/NCR,D72,KASTURBA NAGAR-II,"R. 525,526,529, 530, 533 Kasturba Nagar, New Delhi",9,alopathic,011-24622736,77.22894287,28.575907
11,DELHI/NCR,D73,GURGAON,"409 / Sector-5, Gurgaon",20,alopathic,0124-4064496,77.02132416,28.482607
11,DELHI/NCR,D74,Janakpuri-II,"C-4A, Janak Puri, Near Janakpuri Superspeciality Hospital, N. Delhi-58",5,alopathic,25619345,77.08933258,28.621658
11,DELHI/NCR,D75,KALKAJI-II,"Qr. LIG DDA, Flat 38-B, 42-43A, 745A, Kalkaji, New Delhi",4,alopathic,011-26028746,77.25419617,28.529856
11,DELHI/NCR,D76,Kali Bari,"CGHS Building, Udyan Marg, Kali Bari Marg , DIZ Area , New Delhi",5,alopathic,23743142,77.20024872,28.62901
11,DELHI/NCR,D77,Mayur Vihar,"264 A, Mayur Vihar, Pocket-I, Phase-I, Trilok Kunj , Delhi-110091",8,alopathic,011-22751321,77.29402924,28.604736
11,DELHI/NCR,D78,DAKSHINPURI(PUSHP VIHAR),"A-B/ 125,126,127 Sector-IV , Pusp Vihar, New Delhi",8,alopathic,011-29563193,77.22632599,28.523653
11,DELHI/NCR,D79,Vivek Vihar,"C-Block, Yojna Vihar, Near Mother Dairy, Delhi-110092",11,alopathic,011-22143551,77.31825256,28.663721
11,DELHI/NCR,D8,Chandni Chowk,"Near Moti Cinema, Chandni Chowk, Delhi-6",3,alopathic,23866892,77.23525238,28.657497
11,DELHI/NCR,D80,Paschim Vihar,"Qtr No A1,A2,A8, Pockt-3, Green Apartments,Paschim Vihar, Delhi-63",3,alopathic,25268410,77.10283661,28.669004
11,DELHI/NCR,D81,Pitampura,"Qrtr. No. 421-425 Income Tax Colony, Uttari Pitam Pura, New Delhi-34",5,alopathic,27344481,77.14118195,28.715565
11,DELHI/NCR,D82,Sunder Vihar,Temporarily shifted to Paschim Vihar Wellness Center,15,alopathic,,77.10273743,28.669186
11,DELHI/NCR,D83,Pragati Vihar,"C.P.W.D. Complex, Pragati Vihar, New Delhi.",37,alopathic,24361522 24367843,77.23170471,28.588785
11,DELHI/NCR,D84,Yamuna Vihar,"CGHS Wellness Centre, B2 Block, Yamuna Vihar, Delhi 110053",7,alopathic,011-22565516,77.26750946,28.701345
11,DELHI/NCR,D85,Noida,"R 51, Near Modern School, Sector-11, NOIDA, UP-201301.",11,alopathic,0120-2532312,77.33611298,28.599594
11,DELHI/NCR,D86,Rohini-7,"Near Doon Public School, Sec-7, Nanakpura, Yadav Market, Delhi-85",7,alopathic,27040169,77.11855316,28.704813
11,DELHI/NCR,D87,Dilshad Garden,"Pocket-B, Near Sarvodaya Vidyalaya, Dilshad Garden, Delhi-110095",5,alopathic,22596489,77.31359863,28.68036
11,DELHI/NCR,D88,Shalimar Bagh,"Pocket-P, Block -B Shalimar Bagh, Delhi-88",6,alopathic,27486048,77.15461731,28.70817
11,DELHI/NCR,D89,Rohini-16,"Shop 4,6,7,8,9 FF, CSC-12, DDA Mkt, D-1,Sect 16 ,Rohini, Delhi-110089",5,alopathic,27894403,77.11965179,28.704538
11,DELHI/NCR,D9,"Aliganj,LodiRoad1","CGHS Building, Near Lodhi Road, New Delhi",3,alopathic,24611538,77.21806335,28.580954
11,DELHI/NCR,D90,SARITA VIHAR,"Plot No 11, Sarita Vihar, Institutional Area, Nr Telephone Exch, Delhi",4,alopathic,011-26940651,77.30066681,28.53862
11,DELHI/NCR,D91,VASANT KUNJ,"111-A/9, Krishan Garh, Vasant Kunj, Delhi",4,alopathic,011-26123790,77.16953278,28.522001
11,DELHI/NCR,D92,"Gurgaon, Sec-55","Sector-55, Opposite HUDA Market, Gurgaon",11,alopathic,0124-2578235,77.11043549,28.426765
11,DELHI/NCR,D93,SUPREME COURT,,34,alopathic,,77.23838043,28.620775
11,DELHI/NCR,D94,Sahibabad,"6/16, Sector 2, New Rajender Nagar, Sahibabad.",5,alopathic,0120-2630066,77.35012817,28.684004
11,DELHI/NCR,D95,Noida Sec-82,"Community Center I, Kendriya Vihar II, Plot 3, Sec. 82, Noida201304",6,alopathic,0120-2568899,77.39177704,28.529837
11,DELHI/NCR,D96,Vasant Vihar,"80-C, CPWD Colony, Vasant Vihar,New Delhi",3,alopathic,011-26146573,77.16288757,28.55403
11,DELHI/NCR,D97,Indirapuram,"Flat No. 01-05, Sharda Tower, Sec-4Vaishali, Ghaziabad-UP-201010)",9,alopathic,0120-2770973,77.33979797,28.649866
11,DELHI/NCR,D98,Naraina Vihar,"C Block, Near Community Center, Naraina Vihar, New Delhi-110028",4,alopathic,25778775,77.1435318,28.624996
11,DELHI/NCR,HO19,Dev Nagar (Homeo),"Block No. 13, Qtr no. 53 and 55, Dev Nagar Double Storey Quarters, Dev Nagar, New Delhi-5",2,homeo,25758888,77.18417358,28.654589
11,DELHI/NCR,HO24,HOMEOPATHIC WC KASTURBA NAGAR-I,"CGHS Polyclinic, Kasturba Nagar, New Delhi",1,homeo,"011-24622867, 24693551",77.2493515,28.565622
11,DELHI/NCR,HO26,Tilak Nagar (Homeo),"Tilak Nagar, Near Subzi Mandi, New Delhi-18",3,homeo,25998900,77.09831238,28.638943
11,DELHI/NCR,HO32,South Avenue (Homeo),"B 154, South Avenue, New Delhi",6,homeo,23017698,77.19864655,28.608507
11,DELHI/NCR,HO42,HOMEOPATHIC WC KALKAJI-I,"CGHS Maternity Centre Building & Disp., Kalkaji, New Delhi",3,homeo,011-26430851,77.26003265,28.5397
11,DELHI/NCR,HO48,Hari Nagar (Homeo),"CGHS Hari Nagar, Near DTC Depot, Hari Nagar, New Delhi-64",2,homeo,28125518,77.10641479,28.624872
11,DELHI/NCR,HO49,HOMEOPATHIC WC SHAHDRA,,2,homeo,,77.29935455,28.681932
11,DELHI/NCR,HO57,HOMEOPATHIC WC RKP-XII,,3,homeo,,77.17584991,28.573261
11,DELHI/NCR,HO67,Laxmi Nagar Homeopathic,"2nd Floor, CGHS Building Laxmi Nagar, H-Block, Vikas Marg (Near Metro Station),Laxmi Nagar, Delhi-110092",3,homeo,011-22543108/ 22466544,77.27694702,28.630806
11,DELHI/NCR,HO69,HOMEOPATHIC WC RKP-III,,3,homeo,,77.17884827,28.554304
11,DELHI/NCR,HO7,Timarpur Homeopathic,"CGHS Hospital/ Wellness Centre Timarpur, Lucknow Road, Opp. Patrachar Building, Delhi-54",2,homeo,011-23813808,77.22166443,28.706379
11,DELHI/NCR,HO76,Kalibari (Homeo),"CGHS building, Kalibari Marg, New Delhi",3,homeo,23364574,77.20005798,28.629055
11,DELHI/NCR,HO78,HOMEOPATHIC WC PUSHP VIHAR,"A-B/ 125,126,127 Sector-IV , Pusp Vihar, New Delhi",2,homeo,011-29563193,77.22743988,28.523434
11,DELHI/NCR,PEC,PRESIDENT ESTATE CLINIC,,1,alopathic,,77.2011261,28.62034
11,DELHI/NCR,PHA,PHA (ANNEXE),,41,alopathic,,77.20845795,28.6206
11,DELHI/NCR,RML,DR. RML HOSPITAL,,49,alopathic,,77.19872284,28.624563
11,DELHI/NCR,SA1,SIDHA WC LODHI ROAD,,2,siddha,,77.22452545,28.582287
11,DELHI/NCR,UN13,Sarojini Nagar Unani,"Y-324, Sarojini Nagar, New Delhi-110023",3,unani,011-24673551,77.20131683,28.576881
11,DELHI/NCR,UN28,Darya Ganj Unani,"Daryaganj CGHS Wellness Centre, Sir Sayed Ahmed road, post office Wali Gali behind Golcha Cinema Delhi -110002",2,unani,011-23273043,77.23525238,28.657492
11,DELHI/NCR,UN32,South Avenue (Unani),"31 MP Flats, South Avenue New Delhi",2,unani,23015125,77.19973755,28.60824
11,DELHI/NCR,UN49,Shahdara Unani,"CGHS Wellness Centre No. 49, Mansarovar Park, Shahdara (Near DDA Flats), Delhi-110032",1,unani,011-22583766,77.29879761,28.680838
11,DELHI/NCR,UN98,Naraina Vihar (Unani),"C Block, Near Community Center, Naraina Vihar, Delhi-110028",2,unani,25778775,77.14344788,28.624931
121,MEERUT,MR1,Abu Lane,"171/V, Abu Lane, Meerut Cantt.",4,alopathic,0121-2661739,77.70230865,28.997236
121,MEERUT,MR2,Shastri Nagar,"G-Block, Shastri Nagar, Meerut",2,alopathic,0121-2641320,77.7321167,28.95477
121,MEERUT,MR3,Vijay Nagar,"154, Western Kutchery Road, Vijay Nagar, Meerut",2,alopathic,0121-2640074,77.70441437,28.98993
121,MEERUT,MR4,Kanker Khera,"Shradhapuri, Kanker Khera, Meerut Cantt.",4,alopathic,0121-2556394,77.68421173,29.030275
121,MEERUT,MR5,S K Road,"Swasthya Bhawan, S.K. Road, Meerut",5,alopathic,0121-2763159,77.72096252,28.974173
121,MEERUT,MR6,Lekha Nagar,"DAD Quarters, Lekha Nagar, Meerut Cantt",2,alopathic,0121-2647895,77.70626068,29.01349
121,MEERUT,MRA1,AbuLane Meerut,,2,ayurvedic,,77.70223999,28.997238
121,MEERUT,MRH3,Vijay Nagar Meerut,,2,homeo,,77.7095871,28.986092
135,DHERADUN,DD1,CGHS Milan Vihar Wellness Centre,"20-Navyug Enclave, Indrapuram, Phase-III, Milan Vihar GMS Road Dehradun (Uttarakhand).",4,alopathic,0135-2726820,78.03953552,30.328388
135,DHERADUN,DD2,P & T Wellness Centre,"P & T Colony, Chukhuwala, Chakrata Road Dehradun (Uttarakhand).",3,alopathic,0135-2653166,78.01203918,30.310898
141,JAIPUR,JA1,Chaura Rasta,"1st Floor, Chandan Mahal, Chaura Rasta, Jaipur",3,alopathic,0141-2329927,75.82113647,26.918316
141,JAIPUR,JA2,JANTA COLONY,,2,alopathic,,75.83695221,26.907198
141,JAIPUR,JA3,Bajaj Nagar,"A.G.Colony, Bajaj Nagar, Jaipur",6,alopathic,0141-2710084,75.80387878,26.874372
141,JAIPUR,JA4,BANI PARK,"D-143/A-2, Kaushalya Path, Basant Marg, Banipark, Jaipur",6,alopathic,0141-2207708,75.78604126,26.926512
141,JAIPUR,JA5,Jyoti Nagar,"Income Tax Colony, Jyoti Nagar, Jaipur",5,alopathic,0141-2743263,75.79559326,26.89531
141,JAIPUR,JA6,GSI Colony,"G.S.I. Colony, Malviya Nagar, Jaipur",3,alopathic,0141-2755732,75.81828308,26.84535
141,JAIPUR,JA7,VIDHYADHAR NAGAR,"Custom & Central Excise Colony, Vidhyadhar Nagar, Jaipur",4,alopathic,0141-2335850,75.78572083,26.966885
172,CHANDIGARH,CG1,Chandigarh,"Old U.T., Polyclinic Building, Sector 45C,Chandigarh 160046",9,alopathic,0172-2630692,76.76093292,30.70427
177,SHIMLA,SL1,SHIMLA,,4,alopathic,,77.14741516,31.103388
191,JAMMU,JT01,Jammu,"Exhibition Ground, Dogra Chowk, Jammu ( J & K)",3,alopathic,0194-2520777,74.85848999,32.72272
20,PUNE,PU01,Akurdi,"GPRA QuarterNo.4/182,Central Govt. Colony Sector No.26,Pradhikaran,Akurdi, Pune 411 044.",9,alopathic,020-27640130,73.76499939,18.651558
20,PUNE,PU02,Phulenagar,"GSI Colony, Phulenagar,Pune-411 006.",8,alopathic,020-26685960,73.82150269,18.551428
20,PUNE,PU03,Camp,"Chitragupta Complex, Hidayatullah Road, Pune-411 042.",3,alopathic,020-26455163,73.87445831,18.50474
20,PUNE,PU04,Kasba Peth,"Agneya, 1st FloorPhadke Haud Chowk1422, Kasba PethPune 411 011.",5,alopathic,020-25652045,73.85990143,18.51888
20,PUNE,PU05,Ganeshkhind Road,"Armament Colony, Ganeshkhind Road, Pune-411 020.",35,alopathic,020-25652045,73.82102966,18.551151
20,PUNE,PU06,Range Hills,"Bldg No.296, Range Hills Estate, Range Hills,Pune-411 020.",11,alopathic,020-25819776,73.84120941,18.550385
20,PUNE,PU07,Mukundnagar,"Ground Floor, Swasthya Sadan, Mukundnagar, Pune-411 037.",5,alopathic,020-24266402,72.85643005,19.017027
20,PUNE,PU08,Bajirao Road,"Anandi 1304,Shukrawar Peth,Near Wadia Hospital, Bajirao Road, Pune 411 002.",2,alopathic,020-24471602,73.87454987,18.55219
20,PUNE,PU09,G.T.Road,"6, G.T.Road, Pune-411 001",3,alopathic,020-26360020,73.87970734,18.515316
20,PUNE,PU10,PUNE Polyclinic,,10,alopathic,,73.85936737,18.494251
20,PUNE,PUA7,Ayurvedic Mukund Nagar,,2,ayurvedic,,73.85716248,18.493698
20,PUNE,PUH3,Homeopathic Camp Pune,,3,homeo,,73.87451172,18.504625
20,PUNE,PUH5,Homeopathic Boys battalion Pune,,4,homeo,,73.81980896,18.551321
22,MUMBAI,MU1,CGO New Marine Lines,"Old CGO Building, M.K. Road, (Pratishtha Bhavan) Mumbai-400 020",6,alopathic,022 22018799,72.82796478,18.938894
22,MUMBAI,MU10,Bandra,"Plot NO. 215 31, road, Off Linking Road, Bandra (W)Mumbai 400 050",23,alopathic,2226428114,72.83659363,19.059433
22,MUMBAI,MU11,Byculla,"Khan Mansion, Flat No.1, 15 Victoria Road Byculla, Mumbai 400 027",1,alopathic,2223722150,72.83562469,18.97616
22,MUMBAI,MU12,Ambarnath,"Old primary School, Ordinance Estate, Ambarnath, Thane 421502",5,alopathic,2512600858,73.18596649,19.212654
22,MUMBAI,MU13,CBD Belapur,"Ekta Vihar, Type V, Nerul, Navi Mumbai.",4,alopathic,2227522287,73.02830505,19.026836
22,MUMBAI,MU14,WAKOLA,"P & T Colony, Vakola Mumbai 400 029",24,alopathic,2226650366,72.8575592,19.08297
22,MUMBAI,MU15,Deonar,"Deonar Post Office Bldg Telecom Factory, Town ship compound, Deonar,Mumbai 400 088",2,alopathic,2225512137,72.91854095,19.045315
22,MUMBAI,MU16,OSHIWARA,"Flat No.3 & 4, Building No. 31, Tata Communication (TCL) Colony, Near Oshiwara, Jogeswari (W), Mumbai",21,alopathic,022-26326612,72.83218384,19.150515
22,MUMBAI,MU17,Bhandup,"Flat No. 321 & 322, Type IV Cite C, Central Govt. Qrts,Bhandup, Mumbai-400 078",6,alopathic,2225619655,72.94107819,19.142601
22,MUMBAI,MU18,Vikhroli,"Tata Staff Colony, BldG No. 250, Kannamwar Nagar-1,, Vikhroli-E, , Mumbai400 088",6,alopathic,2225782421,72.93338776,19.109577
22,MUMBAI,MU19,Mulund,"B/2, Type-II P & T. Colony,Mulund(W),Mumbai-400 080",4,alopathic,2225616267,72.94424438,19.172121
22,MUMBAI,MU2,Peddar Road,"Income Tax Flats, No. D-1 Pedder Road, Mumbai-400 026",1,alopathic,2223516680,72.81027985,18.972956
22,MUMBAI,MU20,Kandivali,"D-1/2, Lekha Vihar,Sector 5, Charkop, Kandivli (West),Mumbai 400 067.",16,alopathic,2228677353,72.82310486,19.215654
22,MUMBAI,MU21,"Sahar, Andheri (W)","P&T Colony, Sahar, Mumbai 400 029",7,alopathic,2228210959,72.85985565,19.10255
22,MUMBAI,MU22,"Sheikh Mistry, Koliwada","Shaikh Mistry, S.M. Plot, Kolowada,Mumbai-400 037",6,alopathic,2224015758,72.86833191,19.02878
22,MUMBAI,MU23,Parel,"Govt. Mint Colony, Bldg No.20 Flat No. 41-43, Saibaba Marg, Mint Staff Qtrs, Parel, Mumbai 400 012",3,alopathic,2224187276,72.84323883,18.99578
22,MUMBAI,MU24,"KUJURMARG, POWAL","Naval Armament Depot campus, Kujurmarg, Powal, Mumbai 400 078",2,alopathic,2225784026,72.9233551,19.126501
22,MUMBAI,MU25,Jogeshwari,"Incometax Colony, Bldg No. 10-12, Jogeshwari (E), Mumbai 400 062",12,alopathic,2228210948,72.8575592,19.08297
22,MUMBAI,MU26,Seepz,"Seepz Qtrs Complex, Qtrs. No. C-1, C-2, Andheri (E),Mumbai 400 096.",4,alopathic,2228365751,72.87551117,19.128706
22,MUMBAI,MU27,Nepean Sea Road,"Hyderabad Estate, N.S. Road, Mumbai 400 006",1,alopathic,2223641816,72.80034637,18.956367
22,MUMBAI,MU28,Juhu,"TelecomComplex,JuhuTara Road,Santacruz(W), Mumbai.",2,alopathic,2226601744,72.85726929,19.103073
22,MUMBAI,MU3,Worli,"25-C, Sea Face, Opp. Flora Hotel,Thadani Marg, Worli, Mumbai-400 018.",3,alopathic,2224932909,72.81368256,19.003506
22,MUMBAI,MU5,SANTAKRUZ,"Near Airport Colony,Bamanawada,Santacruz(w), Mumbai 400 029",19,alopathic,2228210971,72.85727692,19.103624
22,MUMBAI,MU6,Ghatkopar,"Flat No. 25, Central Govt.Qurts,Ghatkopar, Mumbai 400 086",12,alopathic,2225149229,72.9092865,19.090258
22,MUMBAI,MU7,WADALA,"C.G.S. Qtrs, Flat 226-227, Type-IV, Wadala, Mumbai-400 031",2,alopathic,2224124515,72.85579681,19.017803
22,MUMBAI,MU8,Koliwada,"Bldg.No.21, Sectior-1, Kane Nagar,Mumbai-400037",9,alopathic,2224013694,72.86637878,19.029572
22,MUMBAI,MU9,CLI Sion,"Central Labour Inst. Premises, Trombay Road,(Sion), Mumbai-400 022.",4,alopathic,2224081616,72.86677551,19.04969
33,KOLKATA,KO1,Belvedere,"Flat no. 68, Belvedere Estate, Kolkata 700 027.(Near Alipore Zoo/Command Hospital)",5,alopathic,24791153,88.34654999,22.52668
33,KOLKATA,KO10,BBD Bag,"5, Esplanade East (Ground Floor),Kolkata 700069. (Opposite to CTC tram Depot, Esplanade)",7,alopathic,22622030,88.3498764,22.566198
33,KOLKATA,KO11,Santagachi,"Govt. of India Press Colony,Santragachi, Howrah-711321.(Near Jagacha Police Station)",8,alopathic,26571526,88.28018188,22.593863
33,KOLKATA,KO12,Salt Lake AF,"Bidhan Nagar AF Block Sec.-I, Flat No. 209 & 210.Kolkata 700064",5,alopathic,23374635,88.42153931,22.598293
33,KOLKATA,KO13,Airport,"New Quarters,Dum Dum, Kolkata 700052. (Nr. Airport Gate no-1)",9,alopathic,25119442,88.42630005,22.63621
33,KOLKATA,KO14,Lake Town,"P 112, Kalindi Housing Scheme, Kolkata-700089. (Near Kalindi Bus stop)",12,alopathic,25222137,88.40235901,22.608047
33,KOLKATA,KO15,Tollygunj,Tollygunge C.G. Qrts. Ground FloorKolkata 700 040. (Opposite to Malancha Cinema Hall ),6,alopathic,24116059,88.35319519,22.489405
33,KOLKATA,KO16,Salt Lake EB,Qrts. Nos. 81 & 82 Type CKolkata 700064.,4,alopathic,23344849,88.4071579,22.586054
33,KOLKATA,KO17,Kudghat,"51 A, Gangapuri, Purbaputiari, Kolkata 7000 93. (Near Kudghat Bazar)",14,alopathic,24311328,88.34709167,22.479055
33,KOLKATA,KO18,Salt Lake IC,"I C Block CGHS Complex, Type (IV) Qrts. Nos. 1 & 2, Sector-I, Salt Lake, Kolkata 700106. (Near Tank No -14)",5,alopathic,23353427,88.41448212,22.571302
33,KOLKATA,KO19,POLYCLINIC,,8,alopathic,,88.41266632,22.573519
33,KOLKATA,KO2,Lake Area,"Lake Govt. Qrts. Fl. No. 55 & 56 Southern Ave., Kolkata 700029. (Near Kamala Girls School / Vivekananda Park)",4,alopathic,24661733,88.35822296,22.514097
33,KOLKATA,KO3,Doverlane,Flat No. 2/D Dover Lane Govt. Qrts. Kolkata 700029. (Near Gariahat Police Station),16,alopathic,24619292,88.358078,22.518232
33,KOLKATA,KO4,Narkeldanga,Flat No. 27 & 28 Narkeldanga Govt. Qrts. Kolkata 700054. (Opposite to Phool Bagan Police Station),8,alopathic,23203998,88.39266205,22.573692
33,KOLKATA,KO5,Shyambazar,"7-A Kalachand Sanyal Lane, Kolkata 700004. (Opposite to Shyambazar Tram Depot)",6,alopathic,25556385,88.37348938,22.599861
33,KOLKATA,KO6,Regent Estate,"102, Regent Estate,Kolkata 700092.(Near sulekha bus stand)",7,alopathic,24125528,88.39987183,22.51736
33,KOLKATA,KO7,B/ Kalighat,"1 A, Satish Mukherjee Road, Kolkata-700026. (Opposite to Basushree Cinema Hall, Near Jatin Das Park Metro Station)",10,alopathic,24641852,88.34750366,22.522116
33,KOLKATA,KO8,Bidhan Sarani,"168, Bidhan Sarani, Kolkata 700006. (Near Hedua)",20,alopathic,25558034,88.36728668,22.699827
33,KOLKATA,KO9,Mint Colony,"9, Mint Guard House,Kolkata 700053.(Near India Govt. Mint, Majherhat)",7,alopathic,24010558,88.31976318,22.514448
3592,GANGTOK,GK1,Gangtok,,1,alopathic,,88.60646057,27.344988
361,GUWAHATI,GT1,Hengrabari,"Shankardev Nagar,Near Housing Colony,Hengrabari,Guwahati-781006",3,alopathic,0361-2269743+919435195800,94.09190369,25.665863
361,GUWAHATI,GT2,Narengi,"Mrs.Jonali Kalita,W/o Dr. Hiren Kalita, 1 No Madgharia, Narengi,Tiniali,Guwahati-781026",3,alopathic,9.19854E+11,91.82079315,26.175413
361,GUWAHATI,GT3,Gotanagar,"H/o Gokul Ch. Deka,H.No-6, P.N.G.B. Road, In front of Guwahati Nursery, Gotanagar,Guwahati-781033",2,alopathic,0361-2670255,91.67494202,26.13751
361,GUWAHATI,GT4,Panbazar,"Panbazar,In front of Don Bosco School,Guwahati-781001",2,alopathic,0361-2540551,91.74562073,26.185768
361,GUWAHATI,GT5,Beharbari,"A.G. Residential Complex, Beharbari,Guwahati-781029",1,alopathic,7896020538,91.77283478,26.115187
361,GUWAHATI,GT6,GUWAHATI HOMEO 1,,1,homeo,,91.78816223,26.146744
364,SHILLONG,SH1,Wellness Centre Laitumkhrah,"Chief Medical Officer Incharge,CGHS Wellness Centre No.1, Laitumkhrah, Shillong-793003, Meghalaya",4,alopathic,0364-2501569,91.90233612,25.567507
364,SHILLONG,SH2,Wellness Centre Opp. Raj Bhawan,"Chief Medical Officer Incharge,CGHS Wellness Centre No.2, Opp. Raj Bhawan, Shillong-793001, Meghalaya",2,alopathic,0364-2504451,91.88684082,25.5722
381,AGARTALA,AG1,Agartala,,1,alopathic,,91.28557587,23.862661
385,IMPHAL,IM1,Imphal,,2,alopathic,,93.95159149,24.797945
40,HYDERABAD,HY1,Charminar,"22-1-951 Noor Khan Bazaar, Hyderabad",4,alopathic,040-24525415,78.48617554,17.373007
40,HYDERABAD,HY10,AGS Colony,"AGS Colony, Vikaspuri, Hyderabad",16,alopathic,040-23810449,78.43066406,17.449778
40,HYDERABAD,HY11,Kakatiyanagar,"Hostel Suite No. 1 to 8, Hostel Complex, GPRA Quarters, Gachibowli, Hyderabad",4,alopathic,040-23002454,78.35686493,17.438831
40,HYDERABAD,HY12,Dilsukhnagar,"H.No.11-7-205(4/A), HUDA Colony, Saroor Ngr, Hyderabad-500035",6,alopathic,040-24046333,78.53982544,17.366604
40,HYDERABAD,HY13,Tarnaka,"Street No.5, Tarnaka, Secunderabad-500017",5,alopathic,040-27019223,78.5322876,17.426619
40,HYDERABAD,HY2,Humayunnagar,"Sharadanagar Colony, Gudimal Kapur, Hyderabad-500028",5,alopathic,040-23531833,78.43933868,17.382103
40,HYDERABAD,HY3,Secunderabad,"Ground Floor, CGO Towers, Kavadiguda, Secunderabad",4,alopathic,040-27708898,78.49341583,17.424078
40,HYDERABAD,HY4,Begumpet,"Kendriya Swasthya Bhavan, Be Gumpet, Hyderabad-500016",10,alopathic,040-27904259,78.4726944,17.44486
40,HYDERABAD,HY5,Himayatnagar,"Oilseeds Quarters Type-1, Behind Lady Hydri Club, Himayatnagar, Hyderabad-500029",8,alopathic,040-23220454,78.47789764,17.40583
40,HYDERABAD,HY6,Kachiguda,"Kendriya Sadan, Sultan Bazar Koti, Hyderabad-500095",4,alopathic,040-2473901,78.48794556,17.386848
40,HYDERABAD,HY7,Malakpet,"H.No.16-3-994/1/A/1, Opp.Officers Mess, New Malakpet, Hyderabad-500036",4,alopathic,040-27529090,78.50126648,17.369219
40,HYDERABAD,HY8,Kanchanbagh,"DRDO Complex Kanchanbagh,Hyderabad-500058",6,alopathic,040-24340299,78.50637817,17.337494
40,HYDERABAD,HY9,Alwal,"Pempala Towers, Old Alwal, Secunderabad",6,alopathic,040-27972563,78.50629425,17.50925
413,PONDICHERRY,PD1,PUDUCHERRY,,3,alopathic,,79.79868317,11.934857
44,CHENNAI,CH01,ADYAR,26th Cross Street Cpwd Qtrs Indira Nagar Adyar,18,alopathic,044-23458401,80.26875305,13.002129
44,CHENNAI,CH02,ANNA NAGAR,Central Revenue Qtr No 15 Ranganathan Garden Anna Nagar,39,alopathic,044-23458402,80.20446014,13.088861
44,CHENNAI,CH03,AVADI,Heavy Vehicles Factory Complex Avadi,5,alopathic,044-23458403,80.1060257,13.123678
44,CHENNAI,CH04,GOPALAPURAM,No 1 1st Street Gopalapuram Chennai,16,alopathic,044-23458404,80.25761414,13.049122
44,CHENNAI,CH05,GUINDY,Block No 6/1-5 Bcg Staff Quarters Guindy,13,alopathic,044-23458405,80.22225952,13.009951
44,CHENNAI,CH06,KK NAGAR,Cpwd Quarters Kk Nagar Chennai 600078,36,alopathic,044-23458406,80.20825195,13.037244
44,CHENNAI,CH07,MEENAMBAKKAM,DGQA Complex Meenambakkam Chennai,4,alopathic,044-23458407,80.17721558,12.982342
44,CHENNAI,CH08,NANDAMBAKKAM,No 16-19 Cda Res Complex Nandambakkam,31,alopathic,044-23458408,80.19509888,13.014582
44,CHENNAI,CH09,NUNGAMBAKKAM,C&B Block 1st Floor Shastri Bhavan Haddows Rd,15,alopathic,044-23458409,80.24710846,13.066603
44,CHENNAI,CH10,PERAMBUR,,21,alopathic,,80.24971771,13.106203
44,CHENNAI,CH11,RA PURAM,No 6 Kamaraj Saalai Ra Puram Chennai,4,alopathic,044-23458411,80.25947571,13.02153
44,CHENNAI,CH12,ROYAPURAM,"No 108,109 Mannar Swami Koil St Royapuram",20,alopathic,044-23458412,80.29117584,13.107506
44,CHENNAI,CH13,TRIPLICANE,No 54 Akbar Sahib St Triplicane Chennai,2,alopathic,044-23458413,80.27694702,13.060354
44,CHENNAI,CH14,VEPERY,"NO 10 Vasu Street , Backside of EGA Theatre .Kilpauk Chennai 600010",9,alopathic,044-23458414,80.24037933,13.078823
471,TRIVANDRUM,TR1,Kesavadasapuram,"TC 3/120, Kesavadasapuram, Thiruvananthapuram",7,alopathic,0471-2443452,76.9407196,8.533119
471,TRIVANDRUM,TR2,Sasthamangalam,"TC 9/1580, ""Mangalya"" Hospital Road, Sasthamangalam Trivandrum-695010",4,alopathic,0471-2728110,76.94612122,8.533302
471,TRIVANDRUM,TR3,Vanchiyoor,"TC 25/2893, Dharmadasham Lane, Vanchiyoor, Trivandrum 695035",8,alopathic,0471-2471143,76.94612122,8.533302
512,KANPUR,KN1,Saket Nagar,"127/924, W-1, Saket Ngr, (Near Sushila Nursing Home), Kanpur",3,alopathic,0512-2666240,80.31765747,26.435453
512,KANPUR,KN2,R. K. NAGAR,"110/58, R.K. Nagar, Kanpur",3,alopathic,0512-2542379,80.31963348,26.470814
512,KANPUR,KN3,Civil Lines,"15/45 (A&B) Civil Lines, Kanpur",4,alopathic,0512-2306876,80.34627533,26.475863
512,KANPUR,KN4,Khapra Mohal,"E-45, Khapra Mohal, Kanpur",3,alopathic,0512-2322924,80.35733795,26.455675
512,KANPUR,KN5,Kendranchal,"Gulmohar Vihal, kendranchal Colony,Naubasta, Kanpur",5,alopathic,0512-2618122,80.34269714,26.400698
512,KANPUR,KN6,Raksha Vihar,"Single JCOs Quarter, Raksha Vihar, Shyam Nagar, Kanpur",3,alopathic,0512-2424311,80.36140442,26.422136
512,KANPUR,KN7,Pandu Nagar,"117/H-2/28, Pandu Nagar, Kanpur",4,alopathic,0512-2217339,80.29418182,26.472935
512,KANPUR,KN8,Azad Nagar,"A/186, Azadnagar, Kanpur",3,alopathic,0512-2560272,80.30625916,26.500862
512,KANPUR,KN9,Ratan Lal Nagar,"Plot No.8-11, Ratan Lal Nagar, Kanpur",5,alopathic,0512-2283399,80.28739166,26.444014
522,LUCKNOW,LK1,Lucknow 1,,4,alopathic,,80.99488068,26.863432
522,LUCKNOW,LK10,AYURVEDIC LUCKNOW,,2,ayurvedic,,80.94749451,26.83356
522,LUCKNOW,LK2,Lucknow2,"Sky Lark Building, Nawal Kishore Road, Lucknow",3,alopathic,0522-2613763,80.95143127,26.886131
522,LUCKNOW,LK3,Lucknow3,"CPB/G Prem Plaza, Kanpur Road, LDA Colony, Lucknow",6,alopathic,0522-2421992,80.90444183,26.79093
522,LUCKNOW,LK4,Lucknow4,"C-3335, Meena Bakery Road Rajajipuram, Lucknow 226017",4,alopathic,0522-2421931,80.88471985,26.843386
522,LUCKNOW,LK5,Lucknow5,"12-B Mall Avenue, Lucknow 226001",4,alopathic,0522-2235139,80.94749451,26.83356
522,LUCKNOW,LK6,Lucknow6,"1/10 Sector A, Sitapur Rd, Aliganj Lucknow 226024",12,alopathic,0522-2745246,80.94458771,26.904528
522,LUCKNOW,LK7,GOL Market,"1st Flr,P Office Campus, Mahanagar Gol Market, Lucknow 226020",4,alopathic,0522-2321432,80.95939636,26.873436
522,LUCKNOW,LK8,PMG Office Hazaratganj,Hazratganj GMT Office Lucknow 226001,2,alopathic,0522-2230077,80.91566467,26.86548
522,LUCKNOW,LK9,Aishbagh,Aishbagh P&T Dispensary Lucknow,2,alopathic,0522-2251392,80.90119934,26.848011
532,ALLAHABAD,AL01,Jawahar Lal Nehru Road,"41, Jawahar Lal Nehru Road, Allahabad",6,alopathic,0532-2468188,81.86323547,25.451668
532,ALLAHABAD,AL02,Drummond,"4/6, Drummond, Allahabad",3,alopathic,0532-2624435,81.82738495,25.450512
532,ALLAHABAD,AL03,Kalyani Devi,"1130/1130A Kalyani Devi, Allahabad",2,alopathic,0532-2242530,81.83385468,25.42972
532,ALLAHABAD,AL04,New Katra,"38 A, Beli Road, New Katra, Allahabad",4,alopathic,0532-2642457,81.85340881,25.47363
532,ALLAHABAD,AL05,Kendranchal Colony,,4,alopathic,,81.77735901,25.454859
532,ALLAHABAD,AL06,Leader Road,"46/38 Leader Road, Allahabad",2,alopathic,0532-403822,81.83309174,25.443272
532,ALLAHABAD,AL07,Naini,"236/101-C /1 Chok Daud Nagar Near Swadeshi Cotton Mills, Naini, Allahabad",3,alopathic,0532-2697132,81.86972809,25.39662
532,ALLAHABAD,AL08,CGHS Polyclinic Sangam Place,"2nd Floor, Sangam Place, Civil Lines, Allahabad",5,alopathic,0532-2560578,81.83052063,25.450197
532,ALLAHABAD,ALA1,AYURVEDIC UNIT,,2,ayurvedic,,81.83092499,25.449434
532,ALLAHABAD,ALH1,HOMEO UNIT,,1,homeo,,81.83092499,25.449434
612,PATNA,PA1,Budhmarg,"Budhmarg, Patna-800001",10,alopathic,0612-2221479,85.13365936,25.607672
612,PATNA,PA2,Kankarbagh,"G-3, People's Cooperative Colony, Kankarbagh, Patna-800020",4,alopathic,0612-2351484,85.15351868,25.603031
612,PATNA,PA3,Salimpur Dumra,"Central Revenue Colony, Salimpur Dumra, Ashiana Nagar, Patna",4,alopathic,0612-2582998,85.08421326,25.617695
612,PATNA,PA4,Boring Canal Road,"Krishna Ashram, Plot No. 1091, East Boring Canal Road, Patna-800001",7,alopathic,0612-2532816,85.12309265,25.61814
612,PATNA,PA5,SURYANCHAL BHANDRA GHAT,,2,alopathic,,85.20616913,25.60989
651,RANCHI,RA1,"NEW AG COLONY, DORANDA","New A.G. Colony Doranda, Ranchi, Jharkhand",8,alopathic,0651-2481901,85.31861115,23.343538
651,RANCHI,RA2,KANTA TOLI,"10 A Deep Villa, Purulia Road, Ranchi, Jharkhand",11,alopathic,0651-2530244,85.34331512,23.364851
651,RANCHI,RA3,P and T COLONY LALPUR,"P & T Colony, Lalpur, Ranchi, Jharkhand",1,alopathic,0651-2562333,85.34026337,23.374857
674,BHUBANESHWAR,BH1,OLD AG COLONY,"Old A.G. Colony, Unit-IV,Bhubaneswar-751001",9,alopathic,0674-2393612,85.82943726,20.279497
674,BHUBANESHWAR,BH2,KHARAVELA NAGAR,"Kharvel Nagar, Unit-III,Bhubaneswar-751001",2,alopathic,0674-2393545,85.83598328,20.272116
674,BHUBANESHWAR,BH3,PMG Square,Near PMG Square Bhubaneswar 751001,5,alopathic,0755- 2566977,85.83598328,20.274715
712,NAGPUR,NADT,CHINDWARA ROAD,,2,alopathic,,79.08332062,21.176567
712,NAGPUR,NP1,Katol Road,"CPWD Colony, Katol Road, Nagpur-440013",5,alopathic,0712-2581773,79.06645966,21.169672
712,NAGPUR,NP2,Civil Lines,"Opposite CBI Quarters, Civil Lines, Nagpur-440001",8,alopathic,0712-2560310,79.0574646,21.158367
712,NAGPUR,NP2A,Seminary Hills,"Swasthya Bhawan, Near TV Tower Seminary Hills Nagpur-440006.",3,alopathic,0712-2511398,79.05751038,21.15836
712,NAGPUR,NP3,PANCH PAOLI,,4,alopathic,,79.10032654,21.173529
712,NAGPUR,NP4,Itwari,"Patel Building, Opp Prakash High School, Queta Colony Bus Stop, Lakadganj, Nagpur-440008",3,alopathic,0712- 2564600,79.11899567,21.151142
712,NAGPUR,NP5,MEDICAL SQUARE,,4,alopathic,,79.09701538,21.131998
712,NAGPUR,NP6,SHANKAR NAGAR,"Himalaya Meridian Aptt, Opp LAD College, Shivaji Nagar, Nagpur-440010",9,alopathic,0712-2249781,79.05664825,21.134077
712,NAGPUR,NP7,Sitabuldi,"Zero Miles, Near RBI Square, Beside Speed Post Office, Nagpur-440001",4,alopathic,0712- 2565169,79.08055115,21.15101
712,NAGPUR,NP8,Sai Mandir,"Laxman Aptt, Beside Sai Mandir, Wardha Road, Nagpur-440015",9,alopathic,0712- 2226516,79.06977844,21.112846
712,NAGPUR,NP9,Sakkardara,"Plot No. 470, Chaudhary Bhawan, Near Tiranga Chowk, Sakkardara, Nagpur-440024",3,alopathic,0712- 2749379,79.1163559,21.130936
712,NAGPUR,NPA2,AYURVEDIC WC No. 2 NAGPUR,,2,ayurvedic,,79.0574646,21.158367
712,NAGPUR,NPA5,AYURVEDIC WC No. 5 NAGPUR,,2,ayurvedic,,79.09701538,21.131998
712,NAGPUR,NPH2,HOMEOPATHIC WC No. 2 NAGPUR,,2,homeo,,79.0574646,21.158367
712,NAGPUR,NPPO,NAGPUR POLYCLINIC,,22,alopathic,,79.06715393,21.169594
731,INDORE,IN1,INDORE1,,4,alopathic,,75.88589478,22.711237
755,BHOPAL,BP1,Jahangirabad,"Central Govt. Health Scheme W.C No. 1, Police ITI Building, Jahangirabad, Bhopal (M.P)-462008",6,alopathic,0755-2765071,77.41622162,23.245274
755,BHOPAL,BP2,Vasant Kunj,House No. 2 Vasant Kunj E 8 Arera Colny Near Canara Bank Bhopal MP 462039,4,alopathic,0755- 2566977,77.4347229,23.200207
761,JABALPUR,JB1,JABALPUR 1,,6,alopathic,,79.92443848,23.161173
761,JABALPUR,JB2,I.B.M. Colony,"Qtr. NO. 9-12, Type III, I.B.M. Colony, Kamla Nehru Nagar, Jabalpur",4,alopathic,0761 2416805,79.91046906,23.167952
761,JABALPUR,JB3,Westland OFK-Extn. Counter of Wellness Centre no. 3,"Qtr. No.MT/2, TypeV,Westland OFK, Jabalpur",5,alopathic,2430018,79.98557281,23.188099
761,JABALPUR,JB4,Head Post Office,"Head Post Office Compound, Jabalpur",4,alopathic,2629460,79.95515442,23.161499
761,JABALPUR,JB5,CGHS WC 5 JABALPUR,,2,alopathic,,80.01100922,23.204065
79,AHMEDABAD,AH01,Ashram Road,"1st Floor, S.R.House, Opp. Mount Carmel School,Ashram Road, Ahmedabad.380009",5,alopathic,079 26577393,72.56924438,23.035246
79,AHMEDABAD,AH02,Shahalam,"Block No 34/285 to 289, Govt.F Colony, A. G. Staff Qtrs, Shalam Tolnaka, Ahmedabad",13,alopathic,079 25393262,72.59152985,22.999426
79,AHMEDABAD,AH03,Navrangpura,"1, Jeevan Prakash Society, Nr. St. Xaviers High School Road Nr Darpan Six Road,Navrangpura",18,alopathic,079 26430021,72.55283356,23.0451
79,AHMEDABAD,AH04,Pragatinagar,"Qtr No. M/49/289-290 Pragatinagar, Ahmedabad",16,alopathic,079 27478393,72.55476379,23.066833
79,AHMEDABAD,AH05,Meghaninagar,"Block No. 68/1615 to1620 A. G. Staff Qtrs, Meghaninagar, Ahmedabad",16,alopathic,079 22680487,72.61798096,23.054527
79,AHMEDABAD,AH07,Gandhingar,"Block no 704/2,sector-8 Gandhinagar",11,alopathic,079 23243433,72.64898682,23.210667
79,AHMEDABAD,AH08,Laldarwaja,"GPO Compound, Laldarwaj, Mirzapur,Ahmedabad",11,alopathic,079 25506622,72.58381653,23.027882
79,AHMEDABAD,AH09,Maninagar,"1st floor,Ram bag post office,Rambag,Maninagar, Ahmedabad",6,alopathic,079 25467055,72.6010437,22.998863
79,AHMEDABAD,AH10,Bopal,"AG Govt. Quarters,Block No A(1), QuarterSN 1 B/H Sun City, S P ring road, Bopal,Ahmedabad",1,alopathic,02717-243144,72.47691345,23.026167
79,AHMEDABAD,AHA1,AYURVEDIC ASHRAM ROAD,,3,ayurvedic,,72.5692215,23.035265
79,AHMEDABAD,AHA7,AYURVEDIC GANDHI NAGAR,,2,ayurvedic,,72.64839935,23.207758
79,AHMEDABAD,AHA8,AYURVEDIC LALDARWAJA,,2,ayurvedic,,72.56919861,23.035217
79,AHMEDABAD,AHH1,HOMEO ASHRAM ROAD,,1,homeo,,72.5692215,23.035244
79,AHMEDABAD,AHH8,HOMEO LALDARWAJA,,1,homeo,,72.56919861,23.035217
80,BENGALURU,BA01,Wellness Center Shivajinagar,"2nd Floor, Ganesh Towers, Infantry Road, Bangalore 560001",6,alopathic,080-25588777,77.60336304,12.980318
80,BENGALURU,BA02,Wellness Center Seshadripuram,"No.6, Sameera Complex, 1St Main, Seshadripuram, Bangalore 560003",6,alopathic,080 23311492,77.57411194,12.98935
80,BENGALURU,BA03,Wellness Center Basavangudi,"No 5 A, Aradhya Complex, Vani Vilas Road, Basavangudi Bangalore 560004",4,alopathic,080 2667300,77.54733276,12.935114
80,BENGALURU,BA04,Wellness Center Ulsoor,"No. 27, Car Street, Ulsoor, Bangalore-560008",6,alopathic,080 25510759,77.62536621,12.975879
80,BENGALURU,BA05,Wellness Center Vijayanagara,"GPRA Quarters, Vijayanagara, Bangalore 5600",6,alopathic,080 23351893,77.53996277,12.973906
80,BENGALURU,BA06,Wellness Center Jayanara,"No. 190, R.V. Road, 2nd Block, Jayanagar, Bangalore-560011",4,alopathic,080 26570202,77.5798645,12.941909
80,BENGALURU,BA07,Wellness Center Koramangala,"GPRA Quarters, Koramangala, Bangalore-560034",8,alopathic,080 25539277,77.62081909,12.92536
80,BENGALURU,BA08,Wellness Center Domlur,GPRA Quarters Domlur 560071,5,alopathic,080 25355662,77.64233398,12.959418
80,BENGALURU,BA09,Wellnessd Center Gangenahalli,"No.11, 1st Cross, HGH Layout, Ganganagar, Bangalore-560032",8,alopathic,080 23330320,77.58743286,13.022677
80,BENGALURU,BA10,Wellness Center CV Raman Nagar DRDO,"DRDO Complex, C.V. Raman Nagar, Bangalore-560093",8,alopathic,080 25243236,77.66238403,12.987225
80,BENGALURU,BA11,CGHS Polyclinic,"3rd Floor, Ganesh Towers, Infantry Road, Bangalore 560001",11,alopathic,080 25589225,77.62081909,12.92536
80,BENGALURU,BA12,KA AYUR1 BASAVANAGUDI,,2,ayurvedic,,77.54707336,12.934715
80,BENGALURU,BA13,KA AYUR2 DOMLUR,,2,ayurvedic,,77.64003754,12.960297
80,BENGALURU,BA14,KA HOMOEO SHIVAJINAGAR,,2,homeo,,77.60323334,12.980467
80,BENGALURU,BA15,KA UNANI SHIVAJINAGAR,,1,unani,,77.603302,12.980249
891,VISAKHAPATNAM,HYV,VISAKHAPATNAM,,2,alopathic,,83.33178711,17.728617
